CTC2_L_00072016-03
1 31159U 26921KG  26070.40842593  .00000000  00000+0  00000-0 0  9998
2 31159  45.0000 180.0000 0000000   0.0000   0.0000 15.28598846    16
CTC2_L_00072016-04
1 31160U 24537GU  26070.40842593  .00000000  00000+0  00000-0 0  9991
2 31160  45.0000 180.0000 0000000   0.0000  90.0000 15.28598846    17
CTC2_L_00072017-01
1 31161U 26142AK  26070.40842593  .00000000  00000+0  00000-0 0  9996
2 31161  45.0000 192.0000 0000000   0.0000 192.0000 15.28598846    14
CTC2_L_00072017-02
1 31162U 25791UY  26070.40842593  .00000000  00000+0  00000-0 0  9996
2 31162  45.0000 192.0000 0000000   0.0000 282.0000 15.28598846    15
CTC2_L_00072017-03
1 31163U 25447HI  26070.40842593  .00000000  00000+0  00000-0 0  9995
2 31163  45.0000 192.0000 0000000   0.0000  12.0000 15.28598846    17
CTC2_L_00072017-04
1 31164U 25773ZM  26070.40842593  .00000000  00000+0  00000-0 0  9998
2 31164  45.0000 192.0000 0000000   0.0000 102.0000 15.28598846    18
CTC2_L_00072018-01
1 31165U 25675LH  26070.40842593  .00000000  00000+0  00000-0 0  9990
2 31165  45.0000 204.0000 0000000   0.0000 204.0000 15.28598846    16
CTC2_L_00072018-02
1 31166U 23159JS  26070.40842593  .00000000  00000+0  00000-0 0  9996
2 31166  45.0000 204.0000 0000000   0.0000 294.0000 15.28598846    16
CTC2_L_00072018-03
1 31167U 22535ZO  26070.40842593  .00000000  00000+0  00000-0 0  9994
2 31167  45.0000 204.0000 0000000   0.0000  24.0000 15.28598846    18
CTC2_L_00072018-04
1 31168U 25436ZU  26070.40842593  .00000000  00000+0  00000-0 0  9998
2 31168  45.0000 204.0000 0000000   0.0000 114.0000 15.28598846    19
CTC2_L_00072019-01
1 31169U 23360VV  26070.40842593  .00000000  00000+0  00000-0 0  9993
2 31169  45.0000 216.0000 0000000   0.0000 216.0000 15.28598846    16
CTC2_L_00072019-02
1 31170U 26233PM  26070.40842593  .00000000  00000+0  00000-0 0  9997
2 31170  45.0000 216.0000 0000000   0.0000 306.0000 15.28598846    18
CTC2_L_00072019-03
1 31171U 26040LY  26070.40842593  .00000000  00000+0  00000-0 0  9994
2 31171  45.0000 216.0000 0000000   0.0000  36.0000 15.28598846    19
CTC2_L_00072019-04
1 31172U 25700LA  26070.40842593  .00000000  00000+0  00000-0 0  9997
2 31172  45.0000 216.0000 0000000   0.0000 126.0000 15.28598846    10
CTC2_L_00072020-01
1 31173U 26407OF  26070.40842593  .00000000  00000+0  00000-0 0  9993
2 31173  45.0000 228.0000 0000000   0.0000 228.0000 15.28598846    17
CTC2_L_00072020-02
1 31174U 22863LD  26070.40842593  .00000000  00000+0  00000-0 0  9996
2 31174  45.0000 228.0000 0000000   0.0000 318.0000 15.28598846    18
CTC2_L_00072020-03
1 31175U 25493JN  26070.40842593  .00000000  00000+0  00000-0 0  9999
2 31175  45.0000 228.0000 0000000   0.0000  48.0000 15.28598846    19
CTC2_L_00072020-04
1 31176U 25272QM  26070.40842593  .00000000  00000+0  00000-0 0  9995
2 31176  45.0000 228.0000 0000000   0.0000 138.0000 15.28598846    10
CTC2_L_00072021-01
1 31177U 22445TR  26070.40842593  .00000000  00000+0  00000-0 0  9995
2 31177  45.0000 240.0000 0000000   0.0000 240.0000 15.28598846    19
CTC2_L_00072021-02
1 31178U 25660DL  26070.40842593  .00000000  00000+0  00000-0 0  9998
2 31178  45.0000 240.0000 0000000   0.0000 330.0000 15.28598846    10
CTC2_L_00072021-03
1 31179U 24599PQ  26070.40842593  .00000000  00000+0  00000-0 0  9999
2 31179  45.0000 240.0000 0000000   0.0000  60.0000 15.28598846    11
CTC2_L_00072021-04
1 31180U 24843DA  26070.40842593  .00000000  00000+0  00000-0 0  9993
2 31180  45.0000 240.0000 0000000   0.0000 150.0000 15.28598846    13
CTC2_L_00072022-01
1 31181U 26331PV  26070.40842593  .00000000  00000+0  00000-0 0  9998
2 31181  45.0000 252.0000 0000000   0.0000 252.0000 15.28598846    10
CTC2_L_00072022-02
1 31182U 25421EI  26070.40842593  .00000000  00000+0  00000-0 0  9998
2 31182  45.0000 252.0000 0000000   0.0000 342.0000 15.28598846    11
CTC2_L_00072022-03
1 31183U 24665XQ  26070.40842593  .00000000  00000+0  00000-0 0  9998
2 31183  45.0000 252.0000 0000000   0.0000  72.0000 15.28598846    12
CTC2_L_00072022-04
1 31184U 26477NB  26070.40842593  .00000000  00000+0  00000-0 0  9992
2 31184  45.0000 252.0000 0000000   0.0000 162.0000 15.28598846    13
CTC2_L_00072023-01
1 31185U 23628GA  26070.40842593  .00000000  00000+0  00000-0 0  9998
2 31185  45.0000 264.0000 0000000   0.0000 264.0000 15.28598846    10
CTC2_L_00072023-02
1 31186U 26460BP  26070.40842593  .00000000  00000+0  00000-0 0  9996
2 31186  45.0000 264.0000 0000000   0.0000 354.0000 15.28598846    11
CTC2_L_00072023-03
1 31187U 25248SL  26070.40842593  .00000000  00000+0  00000-0 0  9990
2 31187  45.0000 264.0000 0000000   0.0000  84.0000 15.28598846    12
CTC2_L_00072023-04
1 31188U 26417HX  26070.40842593  .00000000  00000+0  00000-0 0  9990
2 31188  45.0000 264.0000 0000000   0.0000 174.0000 15.28598846    13
CTC2_L_00072024-01
1 31189U 26907FY  26070.40842593  .00000000  00000+0  00000-0 0  9995
2 31189  45.0000 276.0000 0000000   0.0000 276.0000 15.28598846    10
CTC2_L_00072024-02
1 31190U 24524AF  26070.40842593  .00000000  00000+0  00000-0 0  9990
2 31190  45.0000 276.0000 0000000   0.0000   6.0000 15.28598846    13
CTC2_L_00072024-03
1 31191U 26329EZ  26070.40842593  .00000000  00000+0  00000-0 0  9996
2 31191  45.0000 276.0000 0000000   0.0000  96.0000 15.28598846    13
CTC2_L_00072024-04
1 31192U 25920S   26070.40842593  .00000000  00000+0  00000-0 0  9993
2 31192  45.0000 276.0000 0000000   0.0000 186.0000 15.28598846    14
CTC2_L_00072025-01
1 31193U 26850VB  26070.40842593  .00000000  00000+0  00000-0 0  9997
2 31193  45.0000 288.0000 0000000   0.0000 288.0000 15.28598846    11
CTC2_L_00072025-02
1 31194U 26560JM  26070.40842593  .00000000  00000+0  00000-0 0  9996
2 31194  45.0000 288.0000 0000000   0.0000  18.0000 15.28598846    13
CTC2_L_00072025-03
1 31195U 24342FI  26070.40842593  .00000000  00000+0  00000-0 0  9993
2 31195  45.0000 288.0000 0000000   0.0000 108.0000 15.28598846    14
CTC2_L_00072025-04
1 31196U 25219QJ  26070.40842593  .00000000  00000+0  00000-0 0  9998
2 31196  45.0000 288.0000 0000000   0.0000 198.0000 15.28598846    14
CTC2_L_00072026-01
1 31197U 26248ZX  26070.40842593  .00000000  00000+0  00000-0 0  9992
2 31197  45.0000 300.0000 0000000   0.0000 300.0000 15.28598846    15
CTC2_L_00072026-02
1 31198U 25756IS  26070.40842593  .00000000  00000+0  00000-0 0  9996
2 31198  45.0000 300.0000 0000000   0.0000  30.0000 15.28598846    16
CTC2_L_00072026-03
1 31199U 22693CR  26070.40842593  .00000000  00000+0  00000-0 0  9994
2 31199  45.0000 300.0000 0000000   0.0000 120.0000 15.28598846    17
CTC2_L_00072026-04
1 31200U 26965IQ  26070.40842593  .00000000  00000+0  00000-0 0  9993
2 31200  45.0000 300.0000 0000000   0.0000 210.0000 15.28598846    10
CTC2_L_00072027-01
1 31201U 24465LV  26070.40842593  .00000000  00000+0  00000-0 0  9997
2 31201  45.0000 312.0000 0000000   0.0000 312.0000 15.28598846    17
CTC2_L_00072027-02
1 31202U 26767YV  26070.40842593  .00000000  00000+0  00000-0 0  9995
2 31202  45.0000 312.0000 0000000   0.0000  42.0000 15.28598846    18
CTC2_L_00072027-03
1 31203U 24483OD  26070.40842593  .00000000  00000+0  00000-0 0  9999
2 31203  45.0000 312.0000 0000000   0.0000 132.0000 15.28598846    19
CTC2_L_00072027-04
1 31204U 24410TM  26070.40842593  .00000000  00000+0  00000-0 0  9990
2 31204  45.0000 312.0000 0000000   0.0000 222.0000 15.28598846    10
CTC2_L_00072028-01
1 31205U 25855VR  26070.40842593  .00000000  00000+0  00000-0 0  9995
2 31205  45.0000 324.0000 0000000   0.0000 324.0000 15.28598846    17
CTC2_L_00072028-02
1 31206U 23216SA  26070.40842593  .00000000  00000+0  00000-0 0  9995
2 31206  45.0000 324.0000 0000000   0.0000  54.0000 15.28598846    18
CTC2_L_00072028-03
1 31207U 24012KP  26070.40842593  .00000000  00000+0  00000-0 0  9991
2 31207  45.0000 324.0000 0000000   0.0000 144.0000 15.28598846    19
CTC2_L_00072028-04
1 31208U 25584XO  26070.40842593  .00000000  00000+0  00000-0 0  9997
2 31208  45.0000 324.0000 0000000   0.0000 234.0000 15.28598846    10
CTC2_L_00072029-01
1 31209U 24590UB  26070.40842593  .00000000  00000+0  00000-0 0  9994
2 31209  45.0000 336.0000 0000000   0.0000 336.0000 15.28598846    17
CTC2_L_00072029-02
1 31210U 25544ME  26070.40842593  .00000000  00000+0  00000-0 0  9996
2 31210  45.0000 336.0000 0000000   0.0000  66.0000 15.28598846    19
CTC2_L_00072029-03
1 31211U 24355WH  26070.40842593  .00000000  00000+0  00000-0 0  9996
2 31211  45.0000 336.0000 0000000   0.0000 156.0000 15.28598846    10
CTC2_L_00072029-04
1 31212U 23881SF  26070.40842593  .00000000  00000+0  00000-0 0  9990
2 31212  45.0000 336.0000 0000000   0.0000 246.0000 15.28598846    11
CTC2_L_00072030-01
1 31213U 23286EQ  26070.40842593  .00000000  00000+0  00000-0 0  9990
2 31213  45.0000 348.0000 0000000   0.0000 348.0000 15.28598846    18
CTC2_L_00072030-02
1 31214U 25506ID  26070.40842593  .00000000  00000+0  00000-0 0  9998
2 31214  45.0000 348.0000 0000000   0.0000  78.0000 15.28598846    19
CTC2_L_00072030-03
1 31215U 23561RZ  26070.40842593  .00000000  00000+0  00000-0 0  9998
2 31215  45.0000 348.0000 0000000   0.0000 168.0000 15.28598846    10
CTC2_L_00072030-04
1 31216U 24351BB  26070.40842593  .00000000  00000+0  00000-0 0  9997
2 31216  45.0000 348.0000 0000000   0.0000 258.0000 15.28598846    11
